{
  "type": "FeatureCollection",
  "features": [
    {
      "type": "Feature",
      "properties": {
        "norad_id": 30718,
        "name": "FENGYUN 1C DEB",
        "group": "fengyun-1c-debris",
        "lat": 35.32572044188738,
        "lon": -109.28281363911873,
        "alt_km": 769.381010691658,
        "timestamp": "2025-12-09T23:33:24.132970+00:00",
        "meta_object_name": "FENGYUN 1C DEB",
        "meta_object_id": "1999-025ASC",
        "meta_epoch": "2025-12-09T04:20:11.031936",
        "meta_mean_motion": 14.24305534,
        "meta_eccentricity": 0.00576647,
        "meta_inclination": 98.89,
        "meta_ra_of_asc_node": 63.5385,
        "meta_arg_of_pericenter": 166.3934,
        "meta_mean_anomaly": 193.8815,
        "meta_ephemeris_type": 0,
        "meta_classification_type": "U",
        "meta_norad_cat_id": 30718,
        "meta_element_set_no": 999,
        "meta_rev_at_epoch": 96723,
        "meta_bstar": 0.0020320811,
        "meta_mean_motion_dot": 4.732e-05,
        "meta_mean_motion_ddot": 0,
        "tle_line1": "1 30718U 99025ASC 25343.18068324  .00004732  00000+0  20321-2 0  9998",
        "tle_line2": "2 30718  98.8900  63.5385 0057664 166.3934 193.8815 14.24305534967238"
      },
      "geometry": {
        "type": "Point",
        "coordinates": [
          -109.28281363911873,
          35.32572044188738
        ]
      }
    },
    {
      "type": "Feature",
      "properties": {
        "norad_id": 30719,
        "name": "FENGYUN 1C DEB",
        "group": "fengyun-1c-debris",
        "lat": 16.522495537593873,
        "lon": -51.789073449432124,
        "alt_km": 690.4191121136337,
        "timestamp": "2025-12-09T23:33:24.132980+00:00",
        "meta_object_name": "FENGYUN 1C DEB",
        "meta_object_id": "1999-025ASD",
        "meta_epoch": "2025-12-08T20:28:37.276608",
        "meta_mean_motion": 14.59032709,
        "meta_eccentricity": 0.001142,
        "meta_inclination": 98.8891,
        "meta_ra_of_asc_node": 124.343,
        "meta_arg_of_pericenter": 205.342,
        "meta_mean_anomaly": 154.7219,
        "meta_ephemeris_type": 0,
        "meta_classification_type": "U",
        "meta_norad_cat_id": 30719,
        "meta_element_set_no": 999,
        "meta_rev_at_epoch": 97392,
        "meta_bstar": 0.00463,
        "meta_mean_motion_dot": 0.00021788,
        "meta_mean_motion_ddot": 0,
        "tle_line1": "1 30719U 99025ASD 25342.85320922  .00021788  00000+0  46300-2 0  9992",
        "tle_line2": "2 30719  98.8891 124.3430 0011420 205.3420 154.7219 14.59032709973925"
      },
      "geometry": {
        "type": "Point",
        "coordinates": [
          -51.789073449432124,
          16.522495537593873
        ]
      }
    },
    {
      "type": "Feature",
      "properties": {
        "norad_id": 30720,
        "name": "FENGYUN 1C DEB",
        "group": "fengyun-1c-debris",
        "lat": 62.46681768363227,
        "lon": -4.855095582217243,
        "alt_km": 806.0565829133793,
        "timestamp": "2025-12-09T23:33:24.132991+00:00",
        "meta_object_name": "FENGYUN 1C DEB",
        "meta_object_id": "1999-025ASE",
        "meta_epoch": "2025-12-07T06:18:58.777056",
        "meta_mean_motion": 14.29106511,
        "meta_eccentricity": 0.00324408,
        "meta_inclination": 99.0367,
        "meta_ra_of_asc_node": 154.5536,
        "meta_arg_of_pericenter": 345.0736,
        "meta_mean_anomaly": 193.2618,
        "meta_ephemeris_type": 0,
        "meta_classification_type": "U",
        "meta_norad_cat_id": 30720,
        "meta_element_set_no": 999,
        "meta_rev_at_epoch": 97410,
        "meta_bstar": 0.0006168724,
        "meta_mean_motion_dot": 1.525e-05,
        "meta_mean_motion_ddot": 0,
        "tle_line1": "1 30720U 99025ASE 25341.26318029  .00001525  00000+0  61687-3 0  9996",
        "tle_line2": "2 30720  99.0367 154.5536 0032440 345.0736 193.2618 14.29106511974109"
      },
      "geometry": {
        "type": "Point",
        "coordinates": [
          -4.855095582217243,
          62.46681768363227
        ]
      }
    },
    {
      "type": "Feature",
      "properties": {
        "norad_id": 30721,
        "name": "FENGYUN 1C DEB",
        "group": "fengyun-1c-debris",
        "lat": -69.98135872085848,
        "lon": 139.97281295507418,
        "alt_km": 653.437956075617,
        "timestamp": "2025-12-09T23:33:24.133001+00:00",
        "meta_object_name": "FENGYUN 1C DEB",
        "meta_object_id": "1999-025ASF",
        "meta_epoch": "2025-12-09T07:50:07.148832",
        "meta_mean_motion": 14.71662698,
        "meta_eccentricity": 0.002775,
        "meta_inclination": 98.71,
        "meta_ra_of_asc_node": 114.389,
        "meta_arg_of_pericenter": 351.3467,
        "meta_mean_anomaly": 68.583,
        "meta_ephemeris_type": 0,
        "meta_classification_type": "U",
        "meta_norad_cat_id": 30721,
        "meta_element_set_no": 999,
        "meta_rev_at_epoch": 97792,
        "meta_bstar": 0.0048149,
        "meta_mean_motion_dot": 0.0003024,
        "meta_mean_motion_ddot": 0,
        "tle_line1": "1 30721U 99025ASF 25343.32647163  .00030240  00000+0  48149-2 0  9993",
        "tle_line2": "2 30721  98.7100 114.3890 0027750 351.3467  68.5830 14.71662698977920"
      },
      "geometry": {
        "type": "Point",
        "coordinates": [
          139.97281295507418,
          -69.98135872085848
        ]
      }
    },
    {
      "type": "Feature",
      "properties": {
        "norad_id": 30723,
        "name": "FENGYUN 1C DEB",
        "group": "fengyun-1c-debris",
        "lat": 72.95365222723179,
        "lon": -79.57632574325467,
        "alt_km": 757.7698612229215,
        "timestamp": "2025-12-09T23:33:24.133011+00:00",
        "meta_object_name": "FENGYUN 1C DEB",
        "meta_object_id": "1999-025ASH",
        "meta_epoch": "2025-12-08T22:20:16.175328",
        "meta_mean_motion": 14.41256032,
        "meta_eccentricity": 0.0015228,
        "meta_inclination": 98.8439,
        "meta_ra_of_asc_node": 68.8206,
        "meta_arg_of_pericenter": 273.0432,
        "meta_mean_anomaly": 142.6607,
        "meta_ephemeris_type": 0,
        "meta_classification_type": "U",
        "meta_norad_cat_id": 30723,
        "meta_element_set_no": 999,
        "meta_rev_at_epoch": 97316,
        "meta_bstar": 0.0026046,
        "meta_mean_motion_dot": 8.389e-05,
        "meta_mean_motion_ddot": 0,
        "tle_line1": "1 30723U 99025ASH 25342.93074277  .00008389  00000+0  26046-2 0  9992",
        "tle_line2": "2 30723  98.8439  68.8206 0015228 273.0432 142.6607 14.41256032973167"
      },
      "geometry": {
        "type": "Point",
        "coordinates": [
          -79.57632574325467,
          72.95365222723179
        ]
      }
    },
    {
      "type": "Feature",
      "properties": {
        "norad_id": 30724,
        "name": "FENGYUN 1C DEB",
        "group": "fengyun-1c-debris",
        "lat": 56.22210290806546,
        "lon": 154.22517038241992,
        "alt_km": 819.9565600504066,
        "timestamp": "2025-12-09T23:33:24.133022+00:00",
        "meta_object_name": "FENGYUN 1C DEB",
        "meta_object_id": "1999-025ASJ",
        "meta_epoch": "2025-12-09T11:51:18.016128",
        "meta_mean_motion": 14.37034978,
        "meta_eccentricity": 0.00930034,
        "meta_inclination": 99.3159,
        "meta_ra_of_asc_node": 167.9035,
        "meta_arg_of_pericenter": 269.4244,
        "meta_mean_anomaly": 146.5277,
        "meta_ephemeris_type": 0,
        "meta_classification_type": "U",
        "meta_norad_cat_id": 30724,
        "meta_element_set_no": 999,
        "meta_rev_at_epoch": 98406,
        "meta_bstar": 0.00075519918,
        "meta_mean_motion_dot": 2.302e-05,
        "meta_mean_motion_ddot": 0,
        "tle_line1": "1 30724U 99025ASJ 25343.49395852  .00002302  00000+0  75520-3 0  9991",
        "tle_line2": "2 30724  99.3159 167.9035 0093003 269.4244 146.5277 14.37034978984066"
      },
      "geometry": {
        "type": "Point",
        "coordinates": [
          154.22517038241992,
          56.22210290806546
        ]
      }
    },
    {
      "type": "Feature",
      "properties": {
        "norad_id": 30725,
        "name": "FENGYUN 1C DEB",
        "group": "fengyun-1c-debris",
        "lat": 61.71160077767164,
        "lon": 35.62682122710089,
        "alt_km": 775.288929742118,
        "timestamp": "2025-12-09T23:33:24.133032+00:00",
        "meta_object_name": "FENGYUN 1C DEB",
        "meta_object_id": "1999-025ASK",
        "meta_epoch": "2025-12-09T04:55:54.456960",
        "meta_mean_motion": 14.16044999,
        "meta_eccentricity": 0.00874435,
        "meta_inclination": 99.0071,
        "meta_ra_of_asc_node": 51.9829,
        "meta_arg_of_pericenter": 40.5472,
        "meta_mean_anomaly": 28.2949,
        "meta_ephemeris_type": 0,
        "meta_classification_type": "U",
        "meta_norad_cat_id": 30725,
        "meta_element_set_no": 999,
        "meta_rev_at_epoch": 96298,
        "meta_bstar": 0.0014772831,
        "meta_mean_motion_dot": 2.982e-05,
        "meta_mean_motion_ddot": 0,
        "tle_line1": "1 30725U 99025ASK 25343.20549140  .00002982  00000+0  14773-2 0  9998",
        "tle_line2": "2 30725  99.0071  51.9829 0087443  40.5472  28.2949 14.16044999962982"
      },
      "geometry": {
        "type": "Point",
        "coordinates": [
          35.62682122710089,
          61.71160077767164
        ]
      }
    }
  ]
}